CELESTIS-02 & TAURUS R/B
1 25160U 98007D   26074.15928329  .00000023  00000+0  67125-4 0  9995
2 25160 108.0063 142.4998 0063547 292.9180 138.3767 14.22455060457142
