[{"OBJECT_NAME":"CELESTIS-02 & TAURUS R/B","OBJECT_ID":"1998-007D","EPOCH":"2026-03-15T03:49:22.076256","MEAN_MOTION":14.2245506,"ECCENTRICITY":0.00635475,"INCLINATION":108.0063,"RA_OF_ASC_NODE":142.4998,"ARG_OF_PERICENTER":292.918,"MEAN_ANOMALY":138.3767,"EPHEMERIS_TYPE":0,"CLASSIFICATION_TYPE":"U","NORAD_CAT_ID":25160,"ELEMENT_SET_NO":999,"REV_AT_EPOCH":45714,"BSTAR":6.7124791e-5,"MEAN_MOTION_DOT":2.3e-7,"MEAN_MOTION_DDOT":0}]
